TIANMU-1 08             
1 57400U 23101B   26066.00237819  .00000346  00000+0  14775-4 0  9993
2 57400  97.2717 118.7901 0006380 134.2174 225.9592 15.29204229146020
STARLINK-34161          
1 64017U 25101Z   26068.14569337  .00029321  00000+0  10702-2 0  9995
2 64017  43.0052   0.8898 0001807 273.3372  86.7273 15.27599371 46978
